[Satellite]
VERSION=1.1
NAME=AEROCUBE 5C
NICKNAME=AEROCUBE 5C
TLE1=1 40965U 15058B   19316.84840196  .00000195  00000-0  42160-4 0  9995
TLE2=2 40965  64.7781  82.9109 0179406 153.7841 207.2486 14.74438215  9225
STATUS=0
